<?xml version="1.0" encoding="UTF-8"?>
<ndm xmlns:xsi="http://www.w3.org/2001/XMLSchema-instance" xsi:noNamespaceSchemaLocation="https://sanaregistry.org/r/ndmxml_unqualified/ndmxml-2.0.0-master-2.0.xsd">
<omm id="CCSDS_OMM_VERS" version="2.0">
<header><CREATION_DATE/><ORIGINATOR/></header><body><segment><metadata><OBJECT_NAME>IRIDIUM 106</OBJECT_NAME><OBJECT_ID>2017-003A</OBJECT_ID><CENTER_NAME>EARTH</CENTER_NAME><REF_FRAME>TEME</REF_FRAME><TIME_SYSTEM>UTC</TIME_SYSTEM><MEAN_ELEMENT_THEORY>SGP4</MEAN_ELEMENT_THEORY></metadata><data><meanElements><EPOCH>2024-05-15T04:14:29.548896</EPOCH><MEAN_MOTION>14.34216683</MEAN_MOTION><ECCENTRICITY>.0001914</ECCENTRICITY><INCLINATION>86.3999</INCLINATION><RA_OF_ASC_NODE>47.3815</RA_OF_ASC_NODE><ARG_OF_PERICENTER>87.2506</ARG_OF_PERICENTER><MEAN_ANOMALY>272.8909</MEAN_ANOMALY></meanElements><tleParameters><EPHEMERIS_TYPE>0</EPHEMERIS_TYPE><CLASSIFICATION_TYPE>U</CLASSIFICATION_TYPE><NORAD_CAT_ID>41917</NORAD_CAT_ID><ELEMENT_SET_NO>999</ELEMENT_SET_NO><REV_AT_EPOCH>38384</REV_AT_EPOCH><BSTAR>.95501E-5</BSTAR><MEAN_MOTION_DOT>.47E-6</MEAN_MOTION_DOT><MEAN_MOTION_DDOT>0</MEAN_MOTION_DDOT></tleParameters></data></segment></body></omm>
<omm id="CCSDS_OMM_VERS" version="2.0">
<header><CREATION_DATE/><ORIGINATOR/></header><body><segment><metadata><OBJECT_NAME>IRIDIUM 103</OBJECT_NAME><OBJECT_ID>2017-003B</OBJECT_ID><CENTER_NAME>EARTH</CENTER_NAME><REF_FRAME>TEME</REF_FRAME><TIME_SYSTEM>UTC</TIME_SYSTEM><MEAN_ELEMENT_THEORY>SGP4</MEAN_ELEMENT_THEORY></metadata><data><meanElements><EPOCH>2024-05-14T11:11:33.096192</EPOCH><MEAN_MOTION>14.34216561</MEAN_MOTION><ECCENTRICITY>.0002845</ECCENTRICITY><INCLINATION>86.4008</INCLINATION><RA_OF_ASC_NODE>47.5782</RA_OF_ASC_NODE><ARG_OF_PERICENTER>69.7323</ARG_OF_PERICENTER><MEAN_ANOMALY>290.4179</MEAN_ANOMALY></meanElements><tleParameters><EPHEMERIS_TYPE>0</EPHEMERIS_TYPE><CLASSIFICATION_TYPE>U</CLASSIFICATION_TYPE><NORAD_CAT_ID>41918</NORAD_CAT_ID><ELEMENT_SET_NO>999</ELEMENT_SET_NO><REV_AT_EPOCH>38376</REV_AT_EPOCH><BSTAR>.32145E-3</BSTAR><MEAN_MOTION_DOT>.92E-5</MEAN_MOTION_DOT><MEAN_MOTION_DDOT>0</MEAN_MOTION_DDOT></tleParameters></data></segment></body></omm>
<omm id="CCSDS_OMM_VERS" version="2.0">
<header><CREATION_DATE/><ORIGINATOR/></header><body><segment><metadata><OBJECT_NAME>IRIDIUM 109</OBJECT_NAME><OBJECT_ID>2017-003C</OBJECT_ID><CENTER_NAME>EARTH</CENTER_NAME><REF_FRAME>TEME</REF_FRAME><TIME_SYSTEM>UTC</TIME_SYSTEM><MEAN_ELEMENT_THEORY>SGP4</MEAN_ELEMENT_THEORY></metadata><data><meanElements><EPOCH>2024-05-15T05:45:49.068000</EPOCH><MEAN_MOTION>14.34222351</MEAN_MOTION><ECCENTRICITY>.000254</ECCENTRICITY><INCLINATION>86.4000</INCLINATION><RA_OF_ASC_NODE>47.3040</RA_OF_ASC_NODE><ARG_OF_PERICENTER>83.9067</ARG_OF_PERICENTER><MEAN_ANOMALY>276.2419</MEAN_ANOMALY></meanElements><tleParameters><EPHEMERIS_TYPE>0</EPHEMERIS_TYPE><CLASSIFICATION_TYPE>U</CLASSIFICATION_TYPE><NORAD_CAT_ID>41919</NORAD_CAT_ID><ELEMENT_SET_NO>999</ELEMENT_SET_NO><REV_AT_EPOCH>38386</REV_AT_EPOCH><BSTAR>.46578E-4</BSTAR><MEAN_MOTION_DOT>.15E-5</MEAN_MOTION_DOT><MEAN_MOTION_DDOT>0</MEAN_MOTION_DDOT></tleParameters></data></segment></body></omm>
<omm id="CCSDS_OMM_VERS" version="2.0">
<header><CREATION_DATE/><ORIGINATOR/></header><body><segment><metadata><OBJECT_NAME>IRIDIUM 102</OBJECT_NAME><OBJECT_ID>2017-003D</OBJECT_ID><CENTER_NAME>EARTH</CENTER_NAME><REF_FRAME>TEME</REF_FRAME><TIME_SYSTEM>UTC</TIME_SYSTEM><MEAN_ELEMENT_THEORY>SGP4</MEAN_ELEMENT_THEORY></metadata><data><meanElements><EPOCH>2024-05-14T12:15:29.968128</EPOCH><MEAN_MOTION>14.34214560</MEAN_MOTION><ECCENTRICITY>.0002544</ECCENTRICITY><INCLINATION>86.3994</INCLINATION><RA_OF_ASC_NODE>47.5485</RA_OF_ASC_NODE><ARG_OF_PERICENTER>87.8080</ARG_OF_PERICENTER><MEAN_ANOMALY>272.3407</MEAN_ANOMALY></meanElements><tleParameters><EPHEMERIS_TYPE>0</EPHEMERIS_TYPE><CLASSIFICATION_TYPE>U</CLASSIFICATION_TYPE><NORAD_CAT_ID>41920</NORAD_CAT_ID><ELEMENT_SET_NO>999</ELEMENT_SET_NO><REV_AT_EPOCH>38382</REV_AT_EPOCH><BSTAR>.11373E-3</BSTAR><MEAN_MOTION_DOT>.338E-5</MEAN_MOTION_DOT><MEAN_MOTION_DDOT>0</MEAN_MOTION_DDOT></tleParameters></data></segment></body></omm>
<omm id="CCSDS_OMM_VERS" version="2.0">
<header><CREATION_DATE/><ORIGINATOR/></header><body><segment><metadata><OBJECT_NAME>IRIDIUM 105</OBJECT_NAME><OBJECT_ID>2017-003E</OBJECT_ID><CENTER_NAME>EARTH</CENTER_NAME><REF_FRAME>TEME</REF_FRAME><TIME_SYSTEM>UTC</TIME_SYSTEM><MEAN_ELEMENT_THEORY>SGP4</MEAN_ELEMENT_THEORY></metadata><data><meanElements><EPOCH>2024-05-15T04:18:03.845088</EPOCH><MEAN_MOTION>14.34223029</MEAN_MOTION><ECCENTRICITY>.0002166</ECCENTRICITY><INCLINATION>86.4007</INCLINATION><RA_OF_ASC_NODE>15.7086</RA_OF_ASC_NODE><ARG_OF_PERICENTER>81.3252</ARG_OF_PERICENTER><MEAN_ANOMALY>278.8189</MEAN_ANOMALY></meanElements><tleParameters><EPHEMERIS_TYPE>0</EPHEMERIS_TYPE><CLASSIFICATION_TYPE>U</CLASSIFICATION_TYPE><NORAD_CAT_ID>41921</NORAD_CAT_ID><ELEMENT_SET_NO>999</ELEMENT_SET_NO><REV_AT_EPOCH>38577</REV_AT_EPOCH><BSTAR>.30586E-3</BSTAR><MEAN_MOTION_DOT>.877E-5</MEAN_MOTION_DOT><MEAN_MOTION_DDOT>0</MEAN_MOTION_DDOT></tleParameters></data></segment></body></omm>
<omm id="CCSDS_OMM_VERS" version="2.0">
<header><CREATION_DATE/><ORIGINATOR/></header><body><segment><metadata><OBJECT_NAME>IRIDIUM 104</OBJECT_NAME><OBJECT_ID>2017-003F</OBJECT_ID><CENTER_NAME>EARTH</CENTER_NAME><REF_FRAME>TEME</REF_FRAME><TIME_SYSTEM>UTC</TIME_SYSTEM><MEAN_ELEMENT_THEORY>SGP4</MEAN_ELEMENT_THEORY></metadata><data><meanElements><EPOCH>2024-05-15T03:37:57.304416</EPOCH><MEAN_MOTION>14.34216880</MEAN_MOTION><ECCENTRICITY>.0002578</ECCENTRICITY><INCLINATION>86.3997</INCLINATION><RA_OF_ASC_NODE>47.3117</RA_OF_ASC_NODE><ARG_OF_PERICENTER>83.0995</ARG_OF_PERICENTER><MEAN_ANOMALY>277.0494</MEAN_ANOMALY></meanElements><tleParameters><EPHEMERIS_TYPE>0</EPHEMERIS_TYPE><CLASSIFICATION_TYPE>U</CLASSIFICATION_TYPE><NORAD_CAT_ID>41922</NORAD_CAT_ID><ELEMENT_SET_NO>999</ELEMENT_SET_NO><REV_AT_EPOCH>38390</REV_AT_EPOCH><BSTAR>.45249E-4</BSTAR><MEAN_MOTION_DOT>.146E-5</MEAN_MOTION_DOT><MEAN_MOTION_DDOT>0</MEAN_MOTION_DDOT></tleParameters></data></segment></body></omm>
<omm id="CCSDS_OMM_VERS" version="2.0">
<header><CREATION_DATE/><ORIGINATOR/></header><body><segment><metadata><OBJECT_NAME>IRIDIUM 114</OBJECT_NAME><OBJECT_ID>2017-003G</OBJECT_ID><CENTER_NAME>EARTH</CENTER_NAME><REF_FRAME>TEME</REF_FRAME><TIME_SYSTEM>UTC</TIME_SYSTEM><MEAN_ELEMENT_THEORY>SGP4</MEAN_ELEMENT_THEORY></metadata><data><meanElements><EPOCH>2024-05-14T11:02:25.190592</EPOCH><MEAN_MOTION>14.34222965</MEAN_MOTION><ECCENTRICITY>.0002086</ECCENTRICITY><INCLINATION>86.3998</INCLINATION><RA_OF_ASC_NODE>47.5866</RA_OF_ASC_NODE><ARG_OF_PERICENTER>87.2149</ARG_OF_PERICENTER><MEAN_ANOMALY>272.9285</MEAN_ANOMALY></meanElements><tleParameters><EPHEMERIS_TYPE>0</EPHEMERIS_TYPE><CLASSIFICATION_TYPE>U</CLASSIFICATION_TYPE><NORAD_CAT_ID>41923</NORAD_CAT_ID><ELEMENT_SET_NO>999</ELEMENT_SET_NO><REV_AT_EPOCH>38378</REV_AT_EPOCH><BSTAR>.27777E-3</BSTAR><MEAN_MOTION_DOT>.798E-5</MEAN_MOTION_DOT><MEAN_MOTION_DDOT>0</MEAN_MOTION_DDOT></tleParameters></data></segment></body></omm>
<omm id="CCSDS_OMM_VERS" version="2.0">
<header><CREATION_DATE/><ORIGINATOR/></header><body><segment><metadata><OBJECT_NAME>IRIDIUM 108</OBJECT_NAME><OBJECT_ID>2017-003H</OBJECT_ID><CENTER_NAME>EARTH</CENTER_NAME><REF_FRAME>TEME</REF_FRAME><TIME_SYSTEM>UTC</TIME_SYSTEM><MEAN_ELEMENT_THEORY>SGP4</MEAN_ELEMENT_THEORY></metadata><data><meanElements><EPOCH>2024-05-14T10:02:41.671968</EPOCH><MEAN_MOTION>14.34216344</MEAN_MOTION><ECCENTRICITY>.0002295</ECCENTRICITY><INCLINATION>86.3997</INCLINATION><RA_OF_ASC_NODE>15.9534</RA_OF_ASC_NODE><ARG_OF_PERICENTER>88.1648</ARG_OF_PERICENTER><MEAN_ANOMALY>271.9811</MEAN_ANOMALY></meanElements><tleParameters><EPHEMERIS_TYPE>0</EPHEMERIS_TYPE><CLASSIFICATION_TYPE>U</CLASSIFICATION_TYPE><NORAD_CAT_ID>41924</NORAD_CAT_ID><ELEMENT_SET_NO>999</ELEMENT_SET_NO><REV_AT_EPOCH>38563</REV_AT_EPOCH><BSTAR>.21414E-5</BSTAR><MEAN_MOTION_DOT>.26E-6</MEAN_MOTION_DOT><MEAN_MOTION_DDOT>0</MEAN_MOTION_DDOT></tleParameters></data></segment></body></omm>

</ndm>
