IRIDIUM 106             
1 41917U 17003A   24136.17673089  .00000047  00000+0  95501-5 0  9995
2 41917  86.3999  47.3815 0001914  87.2506 272.8909 14.34216683383840
IRIDIUM 103             
1 41918U 17003B   24135.46635528  .00000920  00000+0  32145-3 0  9996
2 41918  86.4008  47.5782 0002845  69.7323 290.4179 14.34216561383765
IRIDIUM 109             
1 41919U 17003C   24136.24015125  .00000150  00000+0  46578-4 0  9990
2 41919  86.4000  47.3040 0002540  83.9067 276.2419 14.34222351383862
IRIDIUM 102             
1 41920U 17003D   24135.51076352  .00000338  00000+0  11373-3 0  9992
2 41920  86.3994  47.5485 0002544  87.8080 272.3407 14.34214560383825
IRIDIUM 105             
1 41921U 17003E   24136.17921117  .00000877  00000+0  30586-3 0  9999
2 41921  86.4007  15.7086 0002166  81.3252 278.8189 14.34223029385770
IRIDIUM 104             
1 41922U 17003F   24136.15135769  .00000146  00000+0  45249-4 0  9990
2 41922  86.3997  47.3117 0002578  83.0995 277.0494 14.34216880383904
IRIDIUM 114             
1 41923U 17003G   24135.46001378  .00000798  00000+0  27777-3 0  9990
2 41923  86.3998  47.5866 0002086  87.2149 272.9285 14.34222965383789
IRIDIUM 108             
1 41924U 17003H   24135.41853787  .00000026  00000+0  21414-5 0  9993
2 41924  86.3997  15.9534 0002295  88.1648 271.9811 14.34216344385630
